NORAD_CAT_ID,OBJECT_NAME,OBJECT_TYPE,EPOCH,MEAN_MOTION,ECCENTRICITY,INCLINATION,RA_OF_ASC_NODE,ARG_OF_PERICENTER,MEAN_ANOMALY,BSTAR,MEAN_MOTION_DOT,MEAN_MOTION_DDOT,TLE_LINE0,TLE_LINE1,TLE_LINE2,SEMIMAJOR_AXIS,PERIOD,APOGEE,PERIGEE,DECAYED
54795.0,STARLINK-5436,PAYLOAD,2023-03-16 04:25:13,15.08801591,0.0002212,53.2107,239.9203,86.8881,273.2364,0.00034956,5.274e-05,0.0,0 STARLINK-5436,1 54795U 22175AP  23075.18418583  .00005274  00000-0  34956-3 0  9990,2 54795  53.2107 239.9203 0002212  86.8881 273.2364 15.08801591 13496,6917.998,95.44,541.393,538.333,0.0
54795.0,STARLINK-5436,PAYLOAD,2023-03-16 10:46:45,15.08832063,0.0001459,53.2156,238.7306,85.5706,274.5453,-4.0797e-05,-9.37e-06,0.0,0 STARLINK-5436,1 54795U 22175AP  23075.44913787 -.00000937  00000-0 -40797-4 0  9999,2 54795  53.2156 238.7306 0001459  85.5706 274.5453 15.08832063 13531,6917.905,95.438,540.779,538.76,0.0
54795.0,STARLINK-5436,PAYLOAD,2023-03-16 20:19:04,15.0883416,0.0001894,53.2148,236.9473,82.1069,278.0138,-1.3574e-06,-3.1e-06,0.0,0 STARLINK-5436,1 54795U 22175AP  23075.84657704 -.00000310  00000-0 -13574-5 0  9996,2 54795  53.2148 236.9473 0001894  82.1069 278.0138 15.08834160 15750,6917.898,95.438,541.073,538.453,0.0
54795.0,STARLINK-5436,PAYLOAD,2023-03-17 04:15:59,15.08867171,0.0001609,53.2152,235.4618,66.9303,293.1859,-0.00033223,-5.576e-05,0.0,0 STARLINK-5436,1 54795U 22175AP  23076.17777695 -.00005576  00000-0 -33223-3 0  9995,2 54795  53.2152 235.4618 0001609  66.9303 293.1859 15.08867171 13647,6917.797,95.436,540.775,538.549,0.0
54795.0,STARLINK-5436,PAYLOAD,2023-03-17 10:37:32,15.08868462,0.0001419,53.2155,234.2714,73.9866,286.1283,-0.00035199,-5.89e-05,0.0,0 STARLINK-5436,1 54795U 22175AP  23076.44273205 -.00005890  00000-0 -35199-3 0  9996,2 54795  53.2155 234.2714 0001419  73.9866 286.1283 15.08868462 15846,6917.793,95.436,540.64,538.677,0.0
54795.0,STARLINK-5436,PAYLOAD,2023-03-17 20:09:50,15.08865779,0.0001452,53.2148,232.4865,86.2596,273.8562,-0.00024791,-4.234e-05,0.0,0 STARLINK-5436,1 54795U 22175AP  23076.84016327 -.00004234  00000-0 -24791-3 0  9997,2 54795  53.2148 232.4865 0001452  86.2596 273.8562 15.08865779 15907,6917.802,95.436,540.671,538.662,0.0
54795.0,STARLINK-5436,PAYLOAD,2023-03-18 13:39:05,15.08839394,0.0001573,53.2145,229.2159,77.8093,282.3075,6.5847e-05,7.6e-06,0.0,0 STARLINK-5436,1 54795U 22175AP  23077.56881149  .00000760  00000-0  65847-4 0  9995,2 54795  53.2145 229.2159 0001573  77.8093 282.3075 15.08839394 13856,6917.882,95.438,540.835,538.659,0.0
54795.0,STARLINK-5436,PAYLOAD,2023-03-18 20:00:37,15.08847921,0.0001265,53.2158,228.0258,81.3867,278.7269,0.00010571,1.395e-05,0.0,0 STARLINK-5436,1 54795U 22175AP  23077.83376333  .00001395  00000-0  10571-3 0  9997,2 54795  53.2158 228.0258 0001265  81.3867 278.7269 15.08847921 13897,6917.856,95.437,540.596,538.846,0.0
54795.0,STARLINK-5436,PAYLOAD,2023-03-19 02:22:10,15.08840373,0.0001184,53.217,226.8359,81.7682,278.3444,4.4058e-05,4.13e-06,0.0,0 STARLINK-5436,1 54795U 22175AP  23078.09872947  .00000413  00000-0  44058-4 0  9996,2 54795  53.2170 226.8359 0001184  81.7682 278.3444 15.08840373 13938,6917.879,95.438,540.563,538.925,0.0
54795.0,STARLINK-5436,PAYLOAD,2023-03-19 10:19:06,15.08836375,0.0001364,53.2153,225.3505,86.8695,273.2453,-6.0832e-05,-1.256e-05,0.0,0 STARLINK-5436,1 54795U 22175AP  23078.42993657 -.00001256  00000-0 -60832-4 0  9991,2 54795  53.2153 225.3505 0001364  86.8695 273.2453 15.08836375 13982,6917.891,95.438,540.7,538.813,0.0
54795.0,STARLINK-5436,PAYLOAD,2023-03-19 13:29:52,15.08838099,0.0001331,53.2154,224.7557,89.3356,270.7788,-4.5445e-05,-1.011e-05,0.0,0 STARLINK-5436,1 54795U 22175AP  23078.56241464 -.00001011  00000-0 -45445-4 0  9990,2 54795  53.2154 224.7557 0001331  89.3356 270.7788 15.08838099 16160,6917.886,95.438,540.672,538.83,0.0
54795.0,STARLINK-5436,PAYLOAD,2023-03-19 19:51:24,15.08847789,0.0001304,53.2174,223.5671,88.4371,271.6771,7.038e-06,-1.76e-06,0.0,0 STARLINK-5436,1 54795U 22175AP  23078.82736669 -.00000176  00000-0  70380-5 0  9992,2 54795  53.2174 223.5671 0001304  88.4371 271.6771 15.08847789 14046,6917.857,95.437,540.624,538.819,0.0
54795.0,STARLINK-5436,PAYLOAD,2023-03-20 10:09:53,15.08836434,0.0001332,53.2203,220.8925,96.1949,263.9195,-9.3082e-05,-1.769e-05,0.0,0 STARLINK-5436,1 54795U 22175AP  23079.42353767 -.00001769  00000-0 -93082-4 0  9996,2 54795  53.2203 220.8925 0001332  96.1949 263.9195 15.08836434 14138,6917.891,95.438,540.678,538.835,0.0
54795.0,STARLINK-5436,PAYLOAD,2023-03-20 13:20:40,15.08834174,0.0001321,53.2198,220.2977,95.5084,264.6059,-9.8125e-05,-1.849e-05,0.0,0 STARLINK-5436,1 54795U 22175AP  23079.55601939 -.00001849  00000-0 -98125-4 0  9999,2 54795  53.2198 220.2977 0001321  95.5084 264.6059 15.08834174 16311,6917.898,95.438,540.677,538.849,0.0
54795.0,STARLINK-5436,PAYLOAD,2023-03-20 16:31:26,15.08837381,0.0001199,53.2184,219.7027,84.8772,275.2357,-6.0712e-05,-1.254e-05,0.0,0 STARLINK-5436,1 54795U 22175AP  23079.68849613 -.00001254  00000-0 -60712-4 0  9997,2 54795  53.2184 219.7027 0001199  84.8772 275.2357 15.08837381 16337,6917.888,95.438,540.583,538.924,0.0
54795.0,STARLINK-5436,PAYLOAD,2023-03-21 02:03:44,15.08850039,0.000113,53.2181,217.9156,69.423,290.6883,-3.7804e-05,-8.9e-06,0.0,0 STARLINK-5436,1 54795U 22175AP  23080.08592614 -.00000890  00000-0 -37804-4 0  9990,2 54795  53.2181 217.9156 0001130  69.4230 290.6883 15.08850039 14237,6917.85,95.437,540.496,538.933,0.0
54795.0,STARLINK-5436,PAYLOAD,2023-03-21 10:00:40,15.08837011,0.0001276,53.2191,216.431,86.1048,274.009,4.4584e-05,4.22e-06,0.0,0 STARLINK-5436,1 54795U 22175AP  23080.41713277  .00000422  00000-0  44584-4 0  9999,2 54795  53.2191 216.4310 0001276  86.1048 274.0090 15.08837011 14284,6917.89,95.438,540.637,538.872,0.0
54795.0,STARLINK-5436,PAYLOAD,2023-03-21 13:11:26,15.08840704,0.0001318,53.2196,215.8366,86.6749,273.4394,6.7122e-05,7.81e-06,0.0,0 STARLINK-5436,1 54795U 22175AP  23080.54960982  .00000781  00000-0  67122-4 0  9991,2 54795  53.2196 215.8366 0001318  86.6749 273.4394 15.08840704 16468,6917.878,95.438,540.655,538.831,0.0
54795.0,STARLINK-5436,PAYLOAD,2023-03-22 01:54:31,15.08846901,0.0001294,53.2192,213.4576,80.0648,280.049,1.9847e-05,2.8e-07,0.0,0 STARLINK-5436,1 54795U 22175AP  23081.07952626  .00000028  00000-0  19847-4 0  9991,2 54795  53.2192 213.4576 0001294  80.0648 280.0490 15.08846901 14385,6917.859,95.437,540.619,538.829,0.0
54795.0,STARLINK-5436,PAYLOAD,2023-03-22 09:51:27,15.08831157,0.0001867,53.218,211.9694,77.5605,282.5596,9.1921e-05,1.175e-05,0.0,0 STARLINK-5436,1 54795U 22175AP  23081.41073589  .00001175  00000-0  91921-4 0  9998,2 54795  53.2180 211.9694 0001867  77.5605 282.5596 15.08831157 14433,6917.907,95.438,541.064,538.481,0.0
54795.0,STARLINK-5436,PAYLOAD,2023-03-22 16:12:59,15.08843036,0.0001333,53.2176,210.7791,79.2631,280.8512,0.00010015,1.306e-05,0.0,0 STARLINK-5436,1 54795U 22175AP  23081.67568775  .00001306  00000-0  10015-3 0  9992,2 54795  53.2176 210.7791 0001333  79.2631 280.8512 15.08843036 14471,6917.871,95.437,540.658,538.814,0.0
54795.0,STARLINK-5436,PAYLOAD,2023-03-23 08:06:51,15.08834565,0.000147,53.2174,207.8072,79.9569,280.1589,-1.4541e-05,-5.19e-06,0.0,0 STARLINK-5436,1 54795U 22175AP  23082.33809696 -.00000519  00000-0 -14541-4 0  9992,2 54795  53.2174 207.8072 0001470  79.9569 280.1589 15.08834565 14572,6917.897,95.438,540.779,538.745,0.0
54795.0,STARLINK-5436,PAYLOAD,2023-03-23 14:28:23,15.08840754,0.0001551,53.218,206.6179,81.9147,278.2021,-3.4738e-05,-8.41e-06,0.0,0 STARLINK-5436,1 54795U 22175AP  23082.60305433 -.00000841  00000-0 -34738-4 0  9990,2 54795  53.2180 206.6179 0001551  81.9147 278.2021 15.08840754 16779,6917.878,95.438,540.816,538.67,0.0
54795.0,STARLINK-5436,PAYLOAD,2023-03-24 01:36:04,15.08848076,0.0001301,53.2183,204.5359,91.4807,268.6334,0.0001813,2.599e-05,0.0,0 STARLINK-5436,1 54795U 22175AP  23083.06671749  .00002599  00000-0  18130-3 0  9994,2 54795  53.2183 204.5359 0001301  91.4807 268.6334 15.08848076 14684,6917.856,95.437,540.621,538.821,0.0
54795.0,STARLINK-5436,PAYLOAD,2023-03-24 12:43:43,15.08882286,0.0001599,53.2197,202.4554,101.9452,258.172,0.00038808,5.901e-05,0.0,0 STARLINK-5436,1 54795U 22175AP  23083.53036326  .00005901  00000-0  38808-3 0  9996,2 54795  53.2197 202.4554 0001599 101.9452 258.1720 15.08882286 14757,6917.751,95.435,540.722,538.51,0.0
54795.0,STARLINK-5436,PAYLOAD,2023-03-24 14:19:05,15.08889302,0.0001238,53.2184,202.1567,105.5451,254.5678,0.00037515,5.696e-05,0.0,0 STARLINK-5436,1 54795U 22175AP  23083.59659655  .00005696  00000-0  37515-3 0  9993,2 54795  53.2184 202.1567 0001238 105.5451 254.5678 15.08889302 16922,6917.73,95.434,540.451,538.738,0.0
54795.0,STARLINK-5436,PAYLOAD,2023-03-25 01:26:50,15.08847604,0.0001771,53.2172,200.0779,63.2804,296.8369,5.4954e-05,5.87e-06,0.0,0 STARLINK-5436,1 54795U 22175AP  23084.06031072  .00000587  00000-0  54954-4 0  9994,2 54795  53.2172 200.0779 0001771  63.2804 296.8369 15.08847604 14838,6917.857,95.437,540.947,538.497,0.0
54795.0,STARLINK-5436,PAYLOAD,2023-03-25 12:34:40,15.08756416,0.0001565,53.2181,197.9968,91.5338,268.5834,-0.00063249,-0.00010317,0.0,0 STARLINK-5436,1 54795U 22175AP  23084.52408385 -.00010317  00000-0 -63249-3 0  9990,2 54795  53.2181 197.9968 0001565  91.5338 268.5834 15.08756416 14900,6918.136,95.443,541.084,538.918,0.0
54795.0,STARLINK-5436,PAYLOAD,2023-03-25 14:10:03,15.08760545,0.0001729,53.2189,197.6973,114.7739,245.3433,-0.00064298,-0.00010484,0.0,0 STARLINK-5436,1 54795U 22175AP  23084.59032294 -.00010484  00000-0 -64298-3 0  9999,2 54795  53.2189 197.6973 0001729 114.7739 245.3433 15.08760545 17073,6918.123,95.443,541.184,538.792,0.0
54795.0,STARLINK-5436,PAYLOAD,2023-03-26 12:25:21,15.08864726,0.0001614,53.2176,193.538,69.8744,290.2422,-2.5091e-05,-6.88e-06,0.0,0 STARLINK-5436,1 54795U 22175AP  23085.51761500 -.00000688  00000-0 -25091-4 0  9995,2 54795  53.2176 193.5380 0001614  69.8744 290.2422 15.08864726 15054,6917.805,95.436,540.786,538.553,0.0
